{"24": {"Address Line 1": "38997 Wilkinson Island Suite 934", "Address Line 2": "Suite 216", "City": "North Myrontown", "Zipcode": "53137", "Company Website": "leuschke.com", "Company Description": "productize granular schemas", "Phone": "786-651-6808x474", "State": "Utah", "Company Name": "Boyer-Waelchi"}, "25": {"Address Line 1": "561 Conroy Spurs Suite 841", "Address Line 2": "Suite 143", "City": "North Newman", "Zipcode": "77374", "Company Website": "turcottewest.net", "Company Description": "iterate rich convergence", "Phone": "01018931347", "State": "Alaska", "Company Name": "Bogisich LLC"}, "26": {"Address Line 1": "986 Heathcote Center", "Address Line 2": "Apt. 241", "City": "Delaneyberg", "Zipcode": "08674", "Company Website": "wiza.org", "Company Description": "deliver ubiquitous e-services", "Phone": "(526)275-0140x68506", "State": "Wyoming", "Company Name": "Mraz PLC"}, "27": {"Address Line 1": "690 Sauer Divide Apt. 375", "Address Line 2": "Suite 022", "City": "Lauriechester", "Zipcode": "50691", "Company Website": "boscovolkman.com", "Company Description": "transition out-of-the-box interfaces", "Phone": "1-732-649-9088x108", "State": "Idaho", "Company Name": "Ziemann Inc"}, "20": {"Address Line 1": "96440 Stanton Plaza Apt. 932", "Address Line 2": "Apt. 348", "City": "South Basil", "Zipcode": "29816", "Company Website": "sauer.com", "Company Description": "target impactful deliverables", "Phone": "(576)628-1470", "State": "SouthCarolina", "Company Name": "Trantow LLC"}, "21": {"Address Line 1": "8468 Evalena Mount Suite 036", "Address Line 2": "Apt. 114", "City": "North Lucien", "Zipcode": "01633", "Company Website": "lebsack.biz", "Company Description": "unleash holistic architectures", "Phone": "00249093374", "State": "Texas", "Company Name": "Vandervort Group"}, "22": {"Address Line 1": "9672 Huel Park Suite 265", "Address Line 2": "Suite 530", "City": "Port Kaley", "Zipcode": "21273", "Company Website": "jast.info", "Company Description": "whiteboard frictionless bandwidth", "Phone": "(680)654-4694x179", "State": "Louisiana", "Company Name": "Bogan Ltd"}, "23": {"Address Line 1": "0458 Daquan Court", "Address Line 2": "Apt. 251", "City": "Lake Granville", "Zipcode": "53186", "Company Website": "casper.com", "Company Description": "engineer visionary channels", "Phone": "233-756-1042", "State": "Delaware", "Company Name": "Beahan PLC"}, "28": {"Address Line 1": "36214 Bernardo Forge Apt. 946", "Address Line 2": "Suite 539", "City": "New Santana", "Zipcode": "88069", "Company Website": "donnelly.com", "Company Description": "enable enterprise e-commerce", "Phone": "532.407.6516", "State": "Minnesota", "Company Name": "Daniel-Hilll"}, "29": {"Address Line 1": "6749 Cruickshank Mission", "Address Line 2": "Suite 011", "City": "South Fletafurt", "Zipcode": "41016", "Company Website": "goodwinankunding.com", "Company Description": "enable dynamic infrastructures", "Phone": "1-100-780-3011x61378", "State": "Vermont", "Company Name": "Murphy and Sons"}, "4": {"Address Line 1": "05072 Humberto Crescent", "Address Line 2": "Suite 079", "City": "Port Alisson", "Zipcode": "04544", "Company Website": "bradtke.net", "Company Description": "iterate collaborative niches", "Phone": "877.635.3017x928", "State": "Vermont", "Company Name": "Monahan, Turner and Bednar"}, "8": {"Address Line 1": "2251 Wiley Mission", "Address Line 2": "Apt. 858", "City": "East Sherita", "Zipcode": "39318", "Company Website": "tremblay.com", "Company Description": "whiteboard killer methodologies", "Phone": "737-330-1168", "State": "Kentucky", "Company Name": "Balistreri-Thiel"}, "59": {"Address Line 1": "4053 Jast Green", "Address Line 2": "Suite 943", "City": "New Sherri", "Zipcode": "36468", "Company Website": "conroygraham.com", "Company Description": "morph intuitive ROI", "Phone": "01993369362", "State": "NewJersey", "Company Name": "Welch, Carter and Howe"}, "58": {"Address Line 1": "75622 Chuck Street Suite 901", "Address Line 2": "Suite 808", "City": "Port Novaport", "Zipcode": "36202", "Company Website": "mclaughlin.info", "Company Description": "maximize leading-edge bandwidth", "Phone": "+54(6)4059561107", "State": "WestVirginia", "Company Name": "Mills-Maggio"}, "55": {"Address Line 1": "05611 Schiller Garden", "Address Line 2": "Apt. 720", "City": "New Beyonce", "Zipcode": "33724", "Company Website": "rohan.com", "Company Description": "deploy visionary functionalities", "Phone": "03217550452", "State": "Maryland", "Company Name": "Gibson-Okuneva"}, "54": {"Address Line 1": "91869 Cristy Village", "Address Line 2": "Suite 124", "City": "South Winniebury", "Zipcode": "10072", "Company Website": "gleichner.com", "Company Description": "syndicate strategic web-readiness", "Phone": "1-719-749-2920x1243", "State": "Oklahoma", "Company Name": "Koss, Kassulke and Borer"}, "57": {"Address Line 1": "6422 Claus Grove", "Address Line 2": "Suite 638", "City": "Welchchester", "Zipcode": "66253", "Company Website": "wiza.com", "Company Description": "scale synergistic e-services", "Phone": "1-481-186-6656", "State": "Virginia", "Company Name": "Wunsch, Brown and Volkman"}, "56": {"Address Line 1": "647 Britt Glen Apt. 070", "Address Line 2": "Apt. 766", "City": "South Williston", "Zipcode": "96861", "Company Website": "armstrongeffertz.com", "Company Description": "architect customized web services", "Phone": "(319)132-6985", "State": "Hawaii", "Company Name": "Klocko, Bode and Kuvalis"}, "51": {"Address Line 1": "4899 Schulist Brook Apt. 259", "Address Line 2": "Suite 146", "City": "East Arminda", "Zipcode": "27625", "Company Website": "rolfson.com", "Company Description": "drive granular systems", "Phone": "071-853-5678", "State": "Alaska", "Company Name": "Hoeger Ltd"}, "50": {"Address Line 1": "7844 Jep Cliff", "Address Line 2": "Apt. 759", "City": "Medhurstmouth", "Zipcode": "12306", "Company Website": "muellerreilly.net", "Company Description": "enable bricks-and-clicks relationships", "Phone": "1-529-959-7166x9251", "State": "SouthDakota", "Company Name": "Kreiger-Nikolaus"}, "53": {"Address Line 1": "88971 Roxie Shoal", "Address Line 2": "Suite 041", "City": "Lake Huyside", "Zipcode": "42477", "Company Website": "crist.info", "Company Description": "e-enable world-class supply-chains", "Phone": "+48(6)5039797733", "State": "Nevada", "Company Name": "Runolfsson-Lakin"}, "52": {"Address Line 1": "19810 Bolden Fort", "Address Line 2": "Suite 738", "City": "Nikomouth", "Zipcode": "97280", "Company Website": "armstrong.com", "Company Description": "unleash front-end solutions", "Phone": "(831)822-9540x190", "State": "Iowa", "Company Name": "Runte Group"}, "88": {"Address Line 1": "0063 Yadira Mount Apt. 664", "Address Line 2": "Apt. 255", "City": "Kathleneland", "Zipcode": "60414", "Company Website": "roob.com", "Company Description": "repurpose proactive convergence", "Phone": "1-712-737-6899x300", "State": "Oregon", "Company Name": "Casper Group"}, "89": {"Address Line 1": "829 Reichert Neck", "Address Line 2": "Apt. 265", "City": "East Kaliyahhaven", "Zipcode": "51875", "Company Website": "roweklein.net", "Company Description": "generate proactive functionalities", "Phone": "1-623-593-9491x671", "State": "NewMexico", "Company Name": "Stamm Group"}, "82": {"Address Line 1": "274 Yost Curve Apt. 349", "Address Line 2": "Apt. 694", "City": "Giffordmouth", "Zipcode": "70877", "Company Website": "ullrich.com", "Company Description": "facilitate end-to-end e-business", "Phone": "(902)666-5974x6298", "State": "Wyoming", "Company Name": "Waters-Conn"}, "83": {"Address Line 1": "020 Kris Plaza", "Address Line 2": "Apt. 428", "City": "Brakusville", "Zipcode": "33884", "Company Website": "koepp.biz", "Company Description": "optimize frictionless experiences", "Phone": "651.831.5273x56625", "State": "RhodeIsland", "Company Name": "Kessler, Torp and Klocko"}, "80": {"Address Line 1": "27733 Kulas Pine", "Address Line 2": "Suite 522", "City": "New Lois", "Zipcode": "69403", "Company Website": "fritsch.net", "Company Description": "productize back-end vortals", "Phone": "189-044-5981", "State": "Colorado", "Company Name": "Turcotte Group"}, "81": {"Address Line 1": "72331 Dooley Neck Apt. 546", "Address Line 2": "Apt. 969", "City": "Lake Alianaborough", "Zipcode": "30865", "Company Website": "zemlak.com", "Company Description": "target synergistic relationships", "Phone": "700-926-4691x284", "State": "Tennessee", "Company Name": "Ankunding Inc"}, "86": {"Address Line 1": "222 Kaylen Heights", "Address Line 2": "Suite 159", "City": "Port Keilaborough", "Zipcode": "66742", "Company Website": "sanfordkutch.com", "Company Description": "maximize sexy partnerships", "Phone": "932-526-0781x07290", "State": "NorthCarolina", "Company Name": "Wolf PLC"}, "87": {"Address Line 1": "5434 Heaney Trail", "Address Line 2": "Apt. 888", "City": "Heaneyshire", "Zipcode": "10411", "Company Website": "colewiegand.net", "Company Description": "architect revolutionary models", "Phone": "1-362-726-7453x73246", "State": "NewJersey", "Company Name": "Rice-Kub"}, "84": {"Address Line 1": "95445 Metz Square", "Address Line 2": "Apt. 600", "City": "Jonesfort", "Zipcode": "92893", "Company Website": "gorczany.net", "Company Description": "iterate end-to-end info-mediaries", "Phone": "(229)691-7100", "State": "Oregon", "Company Name": "Volkman Ltd"}, "85": {"Address Line 1": "532 Kertzmann Highway", "Address Line 2": "Apt. 202", "City": "Lake Harriette", "Zipcode": "22574", "Company Website": "hudson.com", "Company Description": "reinvent integrated content", "Phone": "(829)649-7302x050", "State": "Arkansas", "Company Name": "Anderson, Herman and Gutkowski"}, "3": {"Address Line 1": "70269 Nim Course", "Address Line 2": "Apt. 832", "City": "North Kordell", "Zipcode": "52994", "Company Website": "bayer.com", "Company Description": "e-enable scalable niches", "Phone": "256-996-1202", "State": "WestVirginia", "Company Name": "Adams-Davis"}, "7": {"Address Line 1": "22989 Howe Villages", "Address Line 2": "Suite 059", "City": "Halvorsonchester", "Zipcode": "89339", "Company Website": "mcdermott.com", "Company Description": "transition real-time metrics", "Phone": "777-980-3282x742", "State": "Iowa", "Company Name": "Thompson LLC"}, "100": {"Address Line 1": "846 Cassin Hollow", "Address Line 2": "Suite 422", "City": "Lake Antonettechester", "Zipcode": "99573", "Company Website": "davisnikolaus.com", "Company Description": "generate bricks-and-clicks info-mediaries", "Phone": "539.611.8500x48207", "State": "Tennessee", "Company Name": "Medhurst-Anderson"}, "39": {"Address Line 1": "8000 Enrico Stream", "Address Line 2": "Suite 563", "City": "Port Donovan", "Zipcode": "64011", "Company Website": "marvinlarkin.info", "Company Description": "extend wireless experiences", "Phone": "1-805-173-3179x437", "State": "NorthCarolina", "Company Name": "Kub-O'Reilly"}, "38": {"Address Line 1": "577 Aurilla Mount Suite 854", "Address Line 2": "Apt. 275", "City": "Lake Clarinestad", "Zipcode": "72928", "Company Website": "nolan.info", "Company Description": "deliver extensible deliverables", "Phone": "321-153-0910x8701", "State": "Idaho", "Company Name": "Buckridge, Rosenbaum and Auer"}, "33": {"Address Line 1": "292 Brekke Mews", "Address Line 2": "Suite 630", "City": "Port Harriettburgh", "Zipcode": "47106", "Company Website": "boehmwehner.net", "Company Description": "transition B2B experiences", "Phone": "568-266-7087", "State": "NorthCarolina", "Company Name": "Brekke, Kshlerin and Ondricka"}, "32": {"Address Line 1": "4178 Johns Track Apt. 850", "Address Line 2": "Apt. 858", "City": "Leilaniborough", "Zipcode": "88800", "Company Website": "pfannerstillwintheiser.com", "Company Description": "aggregate synergistic web services", "Phone": "07292007171", "State": "Pennsylvania", "Company Name": "Bruen-Bartoletti"}, "31": {"Address Line 1": "7513 Lakin Mill Apt. 652", "Address Line 2": "Suite 115", "City": "Dickinsonburgh", "Zipcode": "70553", "Company Website": "thompsonfritsch.com", "Company Description": "extend leading-edge info-mediaries", "Phone": "400.846.6029x89627", "State": "NewYork", "Company Name": "Terry-Mante"}, "30": {"Address Line 1": "3443 West Spur Apt. 528", "Address Line 2": "Apt. 019", "City": "Yundtfurt", "Zipcode": "04577", "Company Website": "ritchie.org", "Company Description": "deliver cross-platform metrics", "Phone": "615-498-3462x33708", "State": "Washington", "Company Name": "Gutmann, Lebsack and Murphy"}, "37": {"Address Line 1": "227 Hintz Club", "Address Line 2": "Suite 100", "City": "Declanburgh", "Zipcode": "97522", "Company Website": "halvorsonhowe.com", "Company Description": "enable compelling portals", "Phone": "971-085-4115x30328", "State": "Ohio", "Company Name": "Aufderhar, Bergnaum and Bartell"}, "36": {"Address Line 1": "549 Orion Way Apt. 437", "Address Line 2": "Apt. 687", "City": "South Derrickstad", "Zipcode": "39794", "Company Website": "rippin.org", "Company Description": "iterate clicks-and-mortar schemas", "Phone": "(823)596-6231x5542", "State": "Mississippi", "Company Name": "VonRueden, Gaylord and Abbott"}, "35": {"Address Line 1": "619 Carleton Station", "Address Line 2": "Apt. 984", "City": "South Alton", "Zipcode": "09538", "Company Website": "tillmanward.com", "Company Description": "deliver efficient markets", "Phone": "501-086-2131x5248", "State": "Vermont", "Company Name": "Zboncak Group"}, "34": {"Address Line 1": "554 Shyanne Squares", "Address Line 2": "Suite 383", "City": "West Arjun", "Zipcode": "60667", "Company Website": "beierchamplin.org", "Company Description": "streamline visionary experiences", "Phone": "091-920-5760x5211", "State": "Wisconsin", "Company Name": "Johns, Armstrong and Jones"}, "60": {"Address Line 1": "12507 Predovic Roads Apt. 702", "Address Line 2": "Suite 546", "City": "East Giancarlomouth", "Zipcode": "54491", "Company Website": "howe.biz", "Company Description": "streamline wireless e-services", "Phone": "891.909.2526x3531", "State": "Texas", "Company Name": "McLaughlin-Graham"}, "61": {"Address Line 1": "9792 Doloris Meadow", "Address Line 2": "Apt. 940", "City": "New Shepherd", "Zipcode": "13927", "Company Website": "jerde.biz", "Company Description": "harness viral methodologies", "Phone": "1-000-094-3554x083", "State": "Idaho", "Company Name": "Fay, Okuneva and Herzog"}, "62": {"Address Line 1": "4449 Pacocha Run Apt. 050", "Address Line 2": "Suite 788", "City": "Port Archport", "Zipcode": "52038", "Company Website": "considinehamill.biz", "Company Description": "mesh wireless relationships", "Phone": "842-125-3899", "State": "Kentucky", "Company Name": "Denesik, Rippin and Fay"}, "63": {"Address Line 1": "8479 Ondricka Street", "Address Line 2": "Apt. 427", "City": "West Aldonaview", "Zipcode": "45944", "Company Website": "pfeffer.com", "Company Description": "streamline customized e-tailers", "Phone": "215-325-3561", "State": "Montana", "Company Name": "Carroll-Heller"}, "64": {"Address Line 1": "04549 Lebsack Canyon Suite 565", "Address Line 2": "Suite 549", "City": "New Jagger", "Zipcode": "94181", "Company Website": "johnson.info", "Company Description": "visualize 24/7 infrastructures", "Phone": "1-527-249-4027x3613", "State": "Missouri", "Company Name": "Friesen-Muller"}, "65": {"Address Line 1": "9489 Brandin Squares", "Address Line 2": "Apt. 617", "City": "Ianchester", "Zipcode": "61065", "Company Website": "stammcartwright.biz", "Company Description": "re-intermediate killer infrastructures", "Phone": "922.902.6838x0855", "State": "NewMexico", "Company Name": "Balistreri, Senger and Legros"}, "66": {"Address Line 1": "888 Huel Forks", "Address Line 2": "Apt. 006", "City": "South Fleming", "Zipcode": "85430", "Company Website": "johnson.net", "Company Description": "incubate best-of-breed web services", "Phone": "965-340-8843", "State": "Arkansas", "Company Name": "Schroeder-Muller"}, "67": {"Address Line 1": "603 Dicki Place Apt. 495", "Address Line 2": "Suite 801", "City": "West Esperanzaborough", "Zipcode": "12437", "Company Website": "bergnaum.com", "Company Description": "disintermediate plug-and-play communities", "Phone": "(907)552-8974", "State": "Missouri", "Company Name": "Dare Inc"}, "68": {"Address Line 1": "584 Jorja Villages", "Address Line 2": "Apt. 859", "City": "East Scottie", "Zipcode": "50262", "Company Website": "haag.com", "Company Description": "productize clicks-and-mortar applications", "Phone": "385-752-4860x892", "State": "SouthCarolina", "Company Name": "Gusikowski-Herman"}, "69": {"Address Line 1": "2534 Denzil Ways", "Address Line 2": "Apt. 356", "City": "East Korey", "Zipcode": "89695", "Company Website": "wunsch.com", "Company Description": "mesh e-business solutions", "Phone": "+69(9)6864090026", "State": "Louisiana", "Company Name": "Mueller, Becker and Kunde"}, "2": {"Address Line 1": "7246 Daugherty Stravenue", "Address Line 2": "Suite 884", "City": "Brekkeside", "Zipcode": "96083", "Company Website": "mann.com", "Company Description": "architect back-end mindshare", "Phone": "02630248359", "State": "Wisconsin", "Company Name": "Klocko-Mertz"}, "6": {"Address Line 1": "29950 Harvie Roads", "Address Line 2": "Apt. 861", "City": "Izaview", "Zipcode": "71105", "Company Website": "eichmann.info", "Company Description": "unleash strategic vortals", "Phone": "625.244.7887x22848", "State": "Maryland", "Company Name": "Hudson Group"}, "99": {"Address Line 1": "09379 Malachi Mountains Apt. 026", "Address Line 2": "Suite 243", "City": "Port Milesmouth", "Zipcode": "86170", "Company Website": "hand.biz", "Company Description": "innovate turn-key solutions", "Phone": "953.455.0014", "State": "SouthDakota", "Company Name": "Jacobs, Rempel and Champlin"}, "98": {"Address Line 1": "80325 Esther River", "Address Line 2": "Apt. 142", "City": "Jocelynnland", "Zipcode": "99615", "Company Website": "mayercummings.info", "Company Description": "utilize synergistic e-markets", "Phone": "1-216-074-1160", "State": "Utah", "Company Name": "Wintheiser Inc"}, "91": {"Address Line 1": "197 Shandra Ville Apt. 257", "Address Line 2": "Apt. 759", "City": "Schillerbury", "Zipcode": "97048", "Company Website": "rohanvandervort.org", "Company Description": "enhance collaborative interfaces", "Phone": "780-572-6454x670", "State": "Nevada", "Company Name": "Rohan Group"}, "90": {"Address Line 1": "310 Fritsch Ville", "Address Line 2": "Apt. 877", "City": "Port Shana", "Zipcode": "74823", "Company Website": "steuber.info", "Company Description": "utilize 24/365 bandwidth", "Phone": "1-732-800-6270", "State": "Nebraska", "Company Name": "Kiehn and Sons"}, "93": {"Address Line 1": "47460 Glynda Circle Apt. 330", "Address Line 2": "Apt. 370", "City": "Queenieport", "Zipcode": "66147", "Company Website": "schillerlueilwitz.net", "Company Description": "incentivize B2C channels", "Phone": "1-136-115-5040", "State": "NewMexico", "Company Name": "Nader Inc"}, "92": {"Address Line 1": "50657 Kunze Ports", "Address Line 2": "Suite 391", "City": "East Shanekamouth", "Zipcode": "90009", "Company Website": "okeefe.com", "Company Description": "drive cross-platform architectures", "Phone": "1-837-437-1128x35681", "State": "NewHampshire", "Company Name": "Wolff LLC"}, "95": {"Address Line 1": "43845 Lesch Plaza Suite 816", "Address Line 2": "Suite 811", "City": "East Hardyborough", "Zipcode": "59437", "Company Website": "gottlieb.com", "Company Description": "target granular systems", "Phone": "06799249373", "State": "Kentucky", "Company Name": "Hand-Bode"}, "94": {"Address Line 1": "905 Annetta Views Apt. 482", "Address Line 2": "Apt. 018", "City": "Darronburgh", "Zipcode": "66319", "Company Website": "prosacco.com", "Company Description": "empower intuitive infrastructures", "Phone": "742-824-5642x3732", "State": "Florida", "Company Name": "Auer Group"}, "97": {"Address Line 1": "13008 Romaguera Meadow", "Address Line 2": "Suite 837", "City": "Lake Zebulonbury", "Zipcode": "95749", "Company Website": "krajcik.net", "Company Description": "streamline clicks-and-mortar markets", "Phone": "977.521.2438x532", "State": "Montana", "Company Name": "Pacocha, Kilback and Treutel"}, "96": {"Address Line 1": "7066 Sawayn Grove", "Address Line 2": "Apt. 211", "City": "New Reubinland", "Zipcode": "47151", "Company Website": "weberkutch.info", "Company Description": "drive back-end content", "Phone": "229-663-2644", "State": "SouthDakota", "Company Name": "Langosh LLC"}, "11": {"Address Line 1": "98079 Upton Extension Suite 781", "Address Line 2": "Suite 882", "City": "Isachester", "Zipcode": "67227", "Company Website": "bradtke.org", "Company Description": "innovate virtual info-mediaries", "Phone": "686.152.2116x35171", "State": "NewHampshire", "Company Name": "Konopelski, Veum and Dooley"}, "10": {"Address Line 1": "9177 Rowe Pike", "Address Line 2": "Apt. 769", "City": "Lake Franc", "Zipcode": "89104", "Company Website": "emmerich.com", "Company Description": "morph leading-edge users", "Phone": "507.366.5531x359", "State": "Nebraska", "Company Name": "Champlin, Franecki and Romaguera"}, "13": {"Address Line 1": "71391 Gay Wells Suite 499", "Address Line 2": "Apt. 398", "City": "Port Christiana", "Zipcode": "10858", "Company Website": "friesenkessler.info", "Company Description": "monetize visionary bandwidth", "Phone": "(669)477-7957x8415", "State": "NewJersey", "Company Name": "Rosenbaum Ltd"}, "12": {"Address Line 1": "666 Schneider Points Suite 812", "Address Line 2": "Apt. 224", "City": "South Joanne", "Zipcode": "69696", "Company Website": "swaniawski.com", "Company Description": "engage scalable supply-chains", "Phone": "197.678.6519x2933", "State": "Wyoming", "Company Name": "Hodkiewicz, Bogisich and Kiehn"}, "15": {"Address Line 1": "875 Metz Village Suite 541", "Address Line 2": "Suite 079", "City": "Corinnafurt", "Zipcode": "82987", "Company Website": "schamberger.com", "Company Description": "synthesize robust web-readiness", "Phone": "1-943-323-2737", "State": "Utah", "Company Name": "Swaniawski-Prosacco"}, "14": {"Address Line 1": "23745 Gulgowski Creek Apt. 644", "Address Line 2": "Apt. 773", "City": "Hyrumhaven", "Zipcode": "27305", "Company Website": "heidenreich.org", "Company Description": "streamline sexy portals", "Phone": "1-860-028-6592", "State": "Pennsylvania", "Company Name": "Lynch Group"}, "17": {"Address Line 1": "20047 Huels Burg Apt. 406", "Address Line 2": "Apt. 334", "City": "Port Lidiafort", "Zipcode": "58819", "Company Website": "leuschkecronin.com", "Company Description": "innovate open-source bandwidth", "Phone": "672-499-7811", "State": "NorthDakota", "Company Name": "O'Conner Inc"}, "16": {"Address Line 1": "847 D'Amore Junction Apt. 153", "Address Line 2": "Apt. 718", "City": "Kaylanfurt", "Zipcode": "12381", "Company Website": "boehmyost.com", "Company Description": "architect sexy functionalities", "Phone": "+24(1)8919432327", "State": "Texas", "Company Name": "Littel-Goodwin"}, "19": {"Address Line 1": "85976 Walker Prairie", "Address Line 2": "Suite 503", "City": "New Scarlett", "Zipcode": "04947", "Company Website": "murphyrolfson.net", "Company Description": "re-intermediate B2C action-items", "Phone": "1-149-263-1334", "State": "Massachusetts", "Company Name": "Cartwright, Walker and Koss"}, "18": {"Address Line 1": "524 Hilll Mill", "Address Line 2": "Apt. 472", "City": "Kshlerinfurt", "Zipcode": "86645", "Company Website": "konopelski.com", "Company Description": "engage dynamic e-markets", "Phone": "+65(5)6265161386", "State": "Kansas", "Company Name": "Goodwin-Bauch"}, "48": {"Address Line 1": "028 Auer Mills Apt. 868", "Address Line 2": "Apt. 673", "City": "Champlinville", "Zipcode": "39258", "Company Website": "schumm.com", "Company Description": "streamline efficient bandwidth", "Phone": "170-241-0254x99074", "State": "Oregon", "Company Name": "Waelchi, Dickens and Gottlieb"}, "49": {"Address Line 1": "82498 Gutkowski Trail", "Address Line 2": "Suite 959", "City": "Earnestside", "Zipcode": "18050", "Company Website": "stiedemann.com", "Company Description": "leverage mission-critical e-commerce", "Phone": "+79(6)6439100676", "State": "Kentucky", "Company Name": "Sipes Inc"}, "46": {"Address Line 1": "35083 Rippin Garden", "Address Line 2": "Suite 350", "City": "Thresaview", "Zipcode": "96990", "Company Website": "simonis.com", "Company Description": "re-intermediate B2C initiatives", "Phone": "1-207-391-4452x0456", "State": "California", "Company Name": "Ratke, Cremin and Goyette"}, "47": {"Address Line 1": "11046 Hettinger Way Apt. 703", "Address Line 2": "Suite 317", "City": "Watsicahaven", "Zipcode": "01346", "Company Website": "schaden.biz", "Company Description": "benchmark distributed platforms", "Phone": "215.718.8150", "State": "Minnesota", "Company Name": "Fahey, Carroll and Schiller"}, "44": {"Address Line 1": "023 Nader Tunnel", "Address Line 2": "Suite 249", "City": "Kuhnland", "Zipcode": "64478", "Company Website": "jacobsmarks.com", "Company Description": "syndicate ubiquitous eyeballs", "Phone": "(427)114-6882x381", "State": "Hawaii", "Company Name": "Leuschke, Will and Cronin"}, "45": {"Address Line 1": "101 Welton Fords", "Address Line 2": "Apt. 229", "City": "Shanahanmouth", "Zipcode": "69766", "Company Website": "nikolaus.com", "Company Description": "productize distributed platforms", "Phone": "1-979-861-1461x443", "State": "NewHampshire", "Company Name": "Hodkiewicz Ltd"}, "42": {"Address Line 1": "5484 Pfannerstill Forges", "Address Line 2": "Apt. 575", "City": "Millsshire", "Zipcode": "04118", "Company Website": "leannon.com", "Company Description": "drive interactive content", "Phone": "882-899-3326x92287", "State": "Massachusetts", "Company Name": "Rodriguez, King and Lesch"}, "43": {"Address Line 1": "500 Hoy Squares Apt. 713", "Address Line 2": "Suite 563", "City": "Mayertport", "Zipcode": "05411", "Company Website": "buckridgedoyle.com", "Company Description": "iterate wireless convergence", "Phone": "1-338-006-2406x1761", "State": "Illinois", "Company Name": "Tromp and Sons"}, "40": {"Address Line 1": "10318 Dessie Haven Apt. 912", "Address Line 2": "Suite 355", "City": "West Cheri", "Zipcode": "10138", "Company Website": "ondricka.com", "Company Description": "engineer magnetic niches", "Phone": "023.292.0086", "State": "Missouri", "Company Name": "Brown, Bruen and Towne"}, "41": {"Address Line 1": "498 Marnita Circles", "Address Line 2": "Apt. 466", "City": "South Kellymouth", "Zipcode": "64837", "Company Website": "considine.com", "Company Description": "re-contextualize 24/365 e-tailers", "Phone": "+35(5)3357311699", "State": "Ohio", "Company Name": "Volkman, O'Keefe and Schamberger"}, "1": {"Address Line 1": "062 Esta Row", "Address Line 2": "Apt. 961", "City": "Lake Evanderport", "Zipcode": "35993", "Company Website": "bergeswaniawski.info", "Company Description": "re-intermediate front-end deliverables", "Phone": "1-858-789-8144x74072", "State": "Wyoming", "Company Name": "Morissette Group"}, "5": {"Address Line 1": "7009 Kody Manors", "Address Line 2": "Apt. 659", "City": "Tildachester", "Zipcode": "07393", "Company Website": "murazik.com", "Company Description": "re-intermediate synergistic channels", "Phone": "019-730-7141", "State": "NewYork", "Company Name": "O'Kon, Nicolas and Nicolas"}, "9": {"Address Line 1": "367 Madisyn Shoal", "Address Line 2": "Suite 882", "City": "Paolaside", "Zipcode": "76420", "Company Website": "stark.info", "Company Description": "cultivate B2C supply-chains", "Phone": "1-297-369-9066", "State": "Georgia", "Company Name": "Kling, Fritsch and Zboncak"}, "77": {"Address Line 1": "428 Koss Mall Apt. 622", "Address Line 2": "Apt. 320", "City": "Port Jasen", "Zipcode": "23166", "Company Website": "keeling.com", "Company Description": "innovate impactful e-commerce", "Phone": "015.256.6536x959", "State": "Utah", "Company Name": "Langosh, Batz and West"}, "76": {"Address Line 1": "8691 Lowe Harbors Suite 875", "Address Line 2": "Suite 994", "City": "Kemtown", "Zipcode": "11180", "Company Website": "koss.com", "Company Description": "visualize synergistic e-business", "Phone": "530-610-1109", "State": "Georgia", "Company Name": "Skiles PLC"}, "75": {"Address Line 1": "061 Gerhold Turnpike", "Address Line 2": "Suite 837", "City": "Port Romemouth", "Zipcode": "11912", "Company Website": "labadie.net", "Company Description": "engineer vertical relationships", "Phone": "1-542-546-7861x2695", "State": "NewMexico", "Company Name": "Smitham LLC"}, "74": {"Address Line 1": "327 Waters Locks Apt. 277", "Address Line 2": "Apt. 568", "City": "Jeanettahaven", "Zipcode": "49254", "Company Website": "mayer.com", "Company Description": "redefine best-of-breed mindshare", "Phone": "098-454-3737x016", "State": "Idaho", "Company Name": "Parker-Fisher"}, "73": {"Address Line 1": "6251 Schuppe Key", "Address Line 2": "Suite 810", "City": "New Gainesport", "Zipcode": "22447", "Company Website": "reillyzboncak.org", "Company Description": "cultivate bricks-and-clicks platforms", "Phone": "1-556-131-7822", "State": "Wyoming", "Company Name": "Willms-Schultz"}, "72": {"Address Line 1": "490 Bobbye Mountains", "Address Line 2": "Suite 235", "City": "Inaside", "Zipcode": "94071", "Company Website": "mcculloughdooley.info", "Company Description": "streamline impactful eyeballs", "Phone": "467-367-9450x4611", "State": "Virginia", "Company Name": "Farrell-Marvin"}, "71": {"Address Line 1": "63065 Lady Trail", "Address Line 2": "Suite 535", "City": "Port Canniemouth", "Zipcode": "40911", "Company Website": "mayer.org", "Company Description": "maximize global technologies", "Phone": "1-997-631-0597x6661", "State": "RhodeIsland", "Company Name": "Simonis, Toy and Powlowski"}, "70": {"Address Line 1": "90805 Lue Vista Suite 246", "Address Line 2": "Apt. 798", "City": "New Jeffersonville", "Zipcode": "71645", "Company Website": "stehr.com", "Company Description": "generate bleeding-edge relationships", "Phone": "804-201-4873x8731", "State": "Montana", "Company Name": "Jacobs-Spencer"}, "79": {"Address Line 1": "7198 Arlin Courts", "Address Line 2": "Apt. 223", "City": "Bayerburgh", "Zipcode": "22381", "Company Website": "crooks.com", "Company Description": "grow real-time metrics", "Phone": "(030)551-1580", "State": "WestVirginia", "Company Name": "Mraz, Kling and Stiedemann"}, "78": {"Address Line 1": "206 Dwight Freeway Apt. 863", "Address Line 2": "Suite 429", "City": "South Piperchester", "Zipcode": "82721", "Company Website": "champlinhackett.com", "Company Description": "deploy bricks-and-clicks paradigms", "Phone": "722-481-6473", "State": "Massachusetts", "Company Name": "Cruickshank, Schmeler and Douglas"}}